CARTOSAT-2D             
1 41948U 17008A   17345.92104067  .00000492  00000-0  26591-4 0  9993
2 41948  97.4721  45.0042 0005812 329.8741  30.2159 15.19227903 45506
